0 SL-16 DEB
1 26074U 00006D   13280.77056838  .00000070  00000-0  11146-3 0  1369
2 26074 070.9633 305.1639 0217144 280.2795 190.9049 13.69170739724212
0 SL-16 DEB
1 26074U 00006D   13282.80404095  .00000078  00000-0  11916-3 0  1371
2 26074 070.9630 301.1976 0217157 277.4626 133.8877 13.69171258724496
0 SL-16 DEB
1 26074U 00006D   13287.49314900  .00000043  00000-0  84939-4 0  1396
2 26074 070.9628 292.0513 0217126 270.9680 206.5039 13.69172763725134
0 SL-16 DEB
1 26074U 00006D   13289.68450383  .00000048  00000-0  90156-4 0  1400
2 26074 070.9631 287.7769 0217092 267.9184 207.7176 13.69173564725437
0 SL-16 DEB
1 26074U 00006D   13292.16160959  .00000065  00000-0  10614-3 0  1414
2 26074 070.9634 282.9450 0217063 264.4671 177.4117 13.69173892725774
0 SL-16 DEB
1 26074U 00006D   13294.43362360  .00000077  00000-0  11849-3 0  1421
2 26074 070.9635 278.5136 0216976 261.3271 216.1823 13.69174334726083
